{
  "type": "FeatureCollection",
  "features": [
    {
      "type": "Feature",
      "properties": {
        "norad_id": 66629,
        "name": "STARLINK-35956",
        "group": "last-30-days",
        "lat": 40.60331256001304,
        "lon": -22.59618632700513,
        "alt_km": 384.11340360945906,
        "timestamp": "2025-12-10T14:53:35.947373+00:00",
        "meta_object_name": "STARLINK-35956",
        "meta_object_id": "2025-271N",
        "meta_epoch": "2025-12-10T06:00:02.000160",
        "meta_mean_motion": 15.60821694,
        "meta_eccentricity": 0.0001217,
        "meta_inclination": 53.1597,
        "meta_ra_of_asc_node": 199.1961,
        "meta_arg_of_pericenter": 101.4155,
        "meta_mean_anomaly": 102.0184,
        "meta_ephemeris_type": 0,
        "meta_classification_type": "U",
        "meta_norad_cat_id": 66629,
        "meta_element_set_no": 999,
        "meta_rev_at_epoch": 384,
        "meta_bstar": -0.027367425,
        "meta_mean_motion_dot": -0.0203679,
        "meta_mean_motion_ddot": 0,
        "tle_line1": "1 66629U 25271N   25344.25002315 -.02036790  00000+0 -27367-1 0  9996",
        "tle_line2": "2 66629  53.1597 199.1961 0001217 101.4155 102.0184 15.60821694  3848"
      },
      "geometry": {
        "type": "Point",
        "coordinates": [
          -22.59618632700513,
          40.60331256001304
        ]
      }
    },
    {
      "type": "Feature",
      "properties": {
        "norad_id": 66630,
        "name": "STARLINK-35949",
        "group": "last-30-days",
        "lat": 39.409535647385994,
        "lon": -20.637384182673863,
        "alt_km": 384.40639983721485,
        "timestamp": "2025-12-10T14:53:35.947381+00:00",
        "meta_object_name": "STARLINK-35949",
        "meta_object_id": "2025-271P",
        "meta_epoch": "2025-12-10T06:00:02.000160",
        "meta_mean_motion": 15.60822766,
        "meta_eccentricity": 0.00011467,
        "meta_inclination": 53.16,
        "meta_ra_of_asc_node": 199.1909,
        "meta_arg_of_pericenter": 93.2139,
        "meta_mean_anomaly": 112.1352,
        "meta_ephemeris_type": 0,
        "meta_classification_type": "U",
        "meta_norad_cat_id": 66630,
        "meta_element_set_no": 999,
        "meta_rev_at_epoch": 384,
        "meta_bstar": -0.027375003,
        "meta_mean_motion_dot": -0.02037303,
        "meta_mean_motion_ddot": 0,
        "tle_line1": "1 66630U 25271P   25344.25002315 -.02037303  00000+0 -27375-1 0  9998",
        "tle_line2": "2 66630  53.1600 199.1909 0001146  93.2139 112.1352 15.60822766  3848"
      },
      "geometry": {
        "type": "Point",
        "coordinates": [
          -20.637384182673863,
          39.409535647385994
        ]
      }
    },
    {
      "type": "Feature",
      "properties": {
        "norad_id": 66631,
        "name": "STARLINK-35965",
        "group": "last-30-days",
        "lat": 38.184760754109476,
        "lon": -18.74556734930276,
        "alt_km": 384.62921553548495,
        "timestamp": "2025-12-10T14:53:35.947390+00:00",
        "meta_object_name": "STARLINK-35965",
        "meta_object_id": "2025-271Q",
        "meta_epoch": "2025-12-10T06:00:02.000160",
        "meta_mean_motion": 15.60825247,
        "meta_eccentricity": 0.0001061,
        "meta_inclination": 53.1599,
        "meta_ra_of_asc_node": 199.1877,
        "meta_arg_of_pericenter": 99.8141,
        "meta_mean_anomaly": 107.4515,
        "meta_ephemeris_type": 0,
        "meta_classification_type": "U",
        "meta_norad_cat_id": 66631,
        "meta_element_set_no": 999,
        "meta_rev_at_epoch": 384,
        "meta_bstar": -0.027438039,
        "meta_mean_motion_dot": -0.02041507,
        "meta_mean_motion_ddot": 0,
        "tle_line1": "1 66631U 25271Q   25344.25002315 -.02041507  00000+0 -27438-1 0  9990",
        "tle_line2": "2 66631  53.1599 199.1877 0001061  99.8141 107.4515 15.60825247  3846"
      },
      "geometry": {
        "type": "Point",
        "coordinates": [
          -18.74556734930276,
          38.184760754109476
        ]
      }
    },
    {
      "type": "Feature",
      "properties": {
        "norad_id": 66632,
        "name": "STARLINK-35973",
        "group": "last-30-days",
        "lat": 36.929628731781605,
        "lon": -16.916303948279353,
        "alt_km": 384.79591287202675,
        "timestamp": "2025-12-10T14:53:35.947401+00:00",
        "meta_object_name": "STARLINK-35973",
        "meta_object_id": "2025-271R",
        "meta_epoch": "2025-12-10T06:00:02.000160",
        "meta_mean_motion": 15.6082323,
        "meta_eccentricity": 0.00011323,
        "meta_inclination": 53.1601,
        "meta_ra_of_asc_node": 199.1836,
        "meta_arg_of_pericenter": 99.9467,
        "meta_mean_anomaly": 109.2365,
        "meta_ephemeris_type": 0,
        "meta_classification_type": "U",
        "meta_norad_cat_id": 66632,
        "meta_element_set_no": 999,
        "meta_rev_at_epoch": 378,
        "meta_bstar": -0.027388609,
        "meta_mean_motion_dot": -0.02038209,
        "meta_mean_motion_ddot": 0,
        "tle_line1": "1 66632U 25271R   25344.25002315 -.02038209  00000+0 -27389-1 0  9991",
        "tle_line2": "2 66632  53.1601 199.1836 0001132  99.9467 109.2365 15.60823230  3783"
      },
      "geometry": {
        "type": "Point",
        "coordinates": [
          -16.916303948279353,
          36.929628731781605
        ]
      }
    },
    {
      "type": "Feature",
      "properties": {
        "norad_id": 66633,
        "name": "STARLINK-35948",
        "group": "last-30-days",
        "lat": 35.647616251855666,
        "lon": -15.148730729944992,
        "alt_km": 385.03117833467877,
        "timestamp": "2025-12-10T14:53:35.947410+00:00",
        "meta_object_name": "STARLINK-35948",
        "meta_object_id": "2025-271S",
        "meta_epoch": "2025-12-10T06:00:02.000160",
        "meta_mean_motion": 15.60822865,
        "meta_eccentricity": 0.00011429,
        "meta_inclination": 53.1602,
        "meta_ra_of_asc_node": 199.1785,
        "meta_arg_of_pericenter": 96.6498,
        "meta_mean_anomaly": 114.4493,
        "meta_ephemeris_type": 0,
        "meta_classification_type": "U",
        "meta_norad_cat_id": 66633,
        "meta_element_set_no": 999,
        "meta_rev_at_epoch": 384,
        "meta_bstar": -0.027370702,
        "meta_mean_motion_dot": -0.02037027,
        "meta_mean_motion_ddot": 0,
        "tle_line1": "1 66633U 25271S   25344.25002315 -.02037027  00000+0 -27371-1 0  9990",
        "tle_line2": "2 66633  53.1602 199.1785 0001142  96.6498 114.4493 15.60822865  3847"
      },
      "geometry": {
        "type": "Point",
        "coordinates": [
          -15.148730729944992,
          35.647616251855666
        ]
      }
    },
    {
      "type": "Feature",
      "properties": {
        "norad_id": 66634,
        "name": "STARLINK-35967",
        "group": "last-30-days",
        "lat": 34.33992849165432,
        "lon": -13.436581012445446,
        "alt_km": 385.26239975681256,
        "timestamp": "2025-12-10T14:53:35.947422+00:00",
        "meta_object_name": "STARLINK-35967",
        "meta_object_id": "2025-271T",
        "meta_epoch": "2025-12-10T06:00:02.000160",
        "meta_mean_motion": 15.60822374,
        "meta_eccentricity": 0.00011455,
        "meta_inclination": 53.1601,
        "meta_ra_of_asc_node": 199.1741,
        "meta_arg_of_pericenter": 96.1113,
        "meta_mean_anomaly": 116.9057,
        "meta_ephemeris_type": 0,
        "meta_classification_type": "U",
        "meta_norad_cat_id": 66634,
        "meta_element_set_no": 999,
        "meta_rev_at_epoch": 377,
        "meta_bstar": -0.0273705,
        "meta_mean_motion_dot": -0.02036982,
        "meta_mean_motion_ddot": 0,
        "tle_line1": "1 66634U 25271T   25344.25002315 -.02036982  00000+0 -27370-1 0  9999",
        "tle_line2": "2 66634  53.1601 199.1741 0001145  96.1113 116.9057 15.60822374  3771"
      },
      "geometry": {
        "type": "Point",
        "coordinates": [
          -13.436581012445446,
          34.33992849165432
        ]
      }
    },
    {
      "type": "Feature",
      "properties": {
        "norad_id": 66635,
        "name": "STARLINK-35955",
        "group": "last-30-days",
        "lat": 33.00957914650902,
        "lon": -11.777472632845193,
        "alt_km": 385.4817345466763,
        "timestamp": "2025-12-10T14:53:35.947431+00:00",
        "meta_object_name": "STARLINK-35955",
        "meta_object_id": "2025-271U",
        "meta_epoch": "2025-12-10T06:00:02.000160",
        "meta_mean_motion": 15.6082602,
        "meta_eccentricity": 0.00011318,
        "meta_inclination": 53.16,
        "meta_ra_of_asc_node": 199.1705,
        "meta_arg_of_pericenter": 99.2139,
        "meta_mean_anomaly": 115.7183,
        "meta_ephemeris_type": 0,
        "meta_classification_type": "U",
        "meta_norad_cat_id": 66635,
        "meta_element_set_no": 999,
        "meta_rev_at_epoch": 384,
        "meta_bstar": -0.027436077,
        "meta_mean_motion_dot": -0.02041486,
        "meta_mean_motion_ddot": 0,
        "tle_line1": "1 66635U 25271U   25344.25002315 -.02041486  00000+0 -27436-1 0  9998",
        "tle_line2": "2 66635  53.1600 199.1705 0001131  99.2139 115.7183 15.60826020  3845"
      },
      "geometry": {
        "type": "Point",
        "coordinates": [
          -11.777472632845193,
          33.00957914650902
        ]
      }
    }
  ]
}